#aV2006  1 25  0  0   .00000000      96 DD+AD WGS84 FIT  NGA
## 1359 259200.00000000   900.00000000 53760  .0000000000000
+   29     1  2  3  4  5  6  7  8  9 10 11 13 14 15 16 17 18
+         19 20 21 22 23 24 25 26 27 28 29 30  0  0  0  0  0
+          0  0  0  0  0  0  0  0  0  0  0  0  0  0  0  0  0
+          0  0  0  0  0  0  0  0  0  0  0  0  0  0  0  0  0
+          0  0  0  0  0  0  0  0  0  0  0  0  0  0  0  0  0
++         0  0  0  0  0  0  0  0  0  0  0  0  0  0  0  0  0
++         0  0  0  0  0  0  0  0  0  0  0  0  0  0  0  0  0
++         0  0  0  0  0  0  0  0  0  0  0  0  0  0  0  0  0
++         0  0  0  0  0  0  0  0  0  0  0  0  0  0  0  0  0
++         0  0  0  0  0  0  0  0  0  0  0  0  0  0  0  0  0
%c cc cc ccc ccc cccc cccc cccc cccc ccccc ccccc ccccc ccccc
%c cc cc ccc ccc cccc cccc cccc cccc ccccc ccccc ccccc ccccc
%f  0.0000000  0.000000000  0.00000000000  0.000000000000000
%f  0.0000000  0.000000000  0.00000000000  0.000000000000000
%i    0    0    0    0      0      0      0      0         0
%i    0    0    0    0      0      0      0      0         0
/*      NGA, ST. LOUIS,MO.                                  
/*   EPHEMERIS COMPUTED FROM  3 DAYS OF DATA                
/* CCCCCCCCCCCCCCCCCCCCCCCCCCCCCCCCCCCCCCCCCCCCCCCCCCCCCCCCC
/* CCCCCCCCCCCCCCCCCCCCCCCCCCCCCCCCCCCCCCCCCCCCCCCCCCCCCCCCC
*  2006  1 25 17  0   .00000000                                                 
P  1  13387.803090  14501.108549  17995.367368     33.252697                    
V  1 -22214.555299  -2875.381788  19013.173483       .018771                    
P  2 -12930.655321 -22853.842237  -4831.442695    -20.871317                    
V  2    487.762988  -6421.890418  30654.978483       .012253                    
P  3  19039.626868  11943.707266 -14537.825667     69.500989                    
V  3 -18280.004023   1664.663844 -22523.521172       .030763                    
P  4  -4919.898479 -25172.578309   6108.352142    129.323846                    
V  4   5883.817062   6196.942506  30472.846988       .116779                    
P  5 -19282.421593   7227.936010  16490.542750    486.875294                    
V  5   9818.067603 -19210.080001  19834.495432       .123034                    
P  6 -21089.097326   8017.411625 -13888.137272    260.227418                    
V  6 -17578.265296  -4745.905393  23549.666272       .391354                    
P  7  -8017.740155 -15724.654548  20329.619917    480.293610                    
V  7  24950.658236    997.993617  10653.929188       .093217                    
P  8   1886.070716 -22563.295715 -13698.410081    -54.628096                    
V  8   7841.683737  15552.834661 -25198.206003      -.010714                    
P  9 -17248.647350  -6409.824969  18728.961566      5.019893                    
V  9  -8854.866688 -23221.012666 -15375.780668       .015727                    
P 10 -10993.271036 -10123.532922 -22029.330989     77.647026                    
V 10  17719.423335 -21345.288314   1274.886596       .004855                    
P 11  18925.042684   3714.634243  18293.623198    301.923018                    
V 11   9871.846615  21457.395568 -14276.981006       .029112                    
P 13  19604.855987  -7586.303330 -16270.018805     37.229787                    
V 13  20004.983987   4594.447514  22117.892311       .023178                    
P 14  -1633.743858  14638.894708  22171.183505    -20.470241                    
V 14 -27600.284388  -4159.941933    670.804450       .005420                    
P 15  -3417.521009  22129.257683 -14162.796226    555.514816                    
V 15  -7685.589969 -16288.511538 -24248.385342       .059659                    
P 16   4721.670553  16572.077714 -20107.105114     23.417350                    
V 16 -16891.040619  19443.663012  12095.307001       .016738                    
P 17   3581.875858 -14842.909313  21704.791155     36.092549                    
V 17  27327.709166   4050.327447  -1815.567475       .088715                    
P 18 -18223.590629  18973.667051  -2126.899780   -216.960785                    
V 18   -510.805692  -4175.694327 -31763.769476      -.022518                    
P 19  25712.720139   6460.889454  -1742.172881    -23.003642                    
V 19  -2857.821576   2363.917418 -31570.211872       .007313                    
P 20  19805.240361  -7337.237907  16002.315874    -34.347135                    
V 20 -10921.389696  17451.092023  21435.211838       .009300                    
P 21  -9600.885347  15017.597520 -19493.038848      -.558826                    
V 21  -9976.700107 -23036.736596 -13308.973712       .035845                    
P 22  -9790.568151  22442.910093  10455.755888     64.118814                    
V 22 -10487.637475   8168.580864 -27774.220845       .022812                    
P 23  25989.918413   -486.297955  -5918.580327    153.070177                    
V 23   6963.365283   3388.027881  30609.372217      -.015805                    
P 24   6434.017405 -18970.166723  17561.208023     80.241546                    
V 24   8770.144100  20159.752378  19061.330323       .030209                    
P 25   9421.054726  24518.343726   3942.241528   -252.088202                    
V 25  -4814.926053  -2627.993930  31110.080893       .904963                    
P 26 -24351.558725  -8945.470761  -7366.916456    -23.251333                    
V 26   8783.677767    155.132641 -30186.816728      -.080127                    
P 27   7956.330884 -15301.218170 -19505.443940     33.042100                    
V 27  12574.462062  23025.175653 -12917.766265       .015789                    
P 28  11507.487324 -22584.578587   7568.669968     34.531255                    
V 28   8143.308357  -5435.484629 -29974.368734      -.007432                    
P 29 -22199.786561 -10012.096461 -10643.859170    511.382037                    
V 29  13873.450503    132.802174 -28155.269448       .132821                    
P 30 -19306.833771  15760.468607   8737.470082     19.458657                    
V 30   4203.294197 -11211.242503  28725.000888       .038693                    
EOF
